STARLINK-35434          
1 66246U 25245N   26068.87312064  .00024159  00000+0  82495-3 0  9996
2 66246  53.1567 283.1123 0000778  94.0216 266.0874 15.30207836 21075
KUIPER-00222            
1 67782U 26030U   26068.67636257  .00055223  00000+0  17317-2 0  9992
2 67782  51.8817 219.7147 0012800  40.1845 320.0084 15.32445377  5087
